TIGER-8                 
1 59120U 24043Y   26201.89802617  .00006576  00000+0  14021-3 0  9996
2 59120  97.5582 351.8751 0008842  85.9172 274.3087 15.45232409132999
TIGER-7                 
1 59141U 24043AV  26201.91683681  .00008387  00000+0  15439-3 0  9996
2 59141  97.5518 354.4353 0006605  60.8082 299.3828 15.49429442133197
