{"fetched_at":"2026-07-21T07:07:17.908Z","source":"https://celestrak.org/NORAD/elements/gp.php?NAME=TIGER&FORMAT=JSON","constellation":"oq-technology","records":[{"OBJECT_NAME":"TIGER-8","OBJECT_ID":"2024-043Y","EPOCH":"2026-07-20T21:33:09.461088","CLASSIFICATION_TYPE":"U","MEAN_MOTION":15.45232409,"ECCENTRICITY":0.00088423,"INCLINATION":97.5582,"RA_OF_ASC_NODE":351.8751,"ARG_OF_PERICENTER":85.9172,"MEAN_ANOMALY":274.3087,"EPHEMERIS_TYPE":0,"NORAD_CAT_ID":59120,"ELEMENT_SET_NO":999,"REV_AT_EPOCH":13299,"BSTAR":0.00014021236,"MEAN_MOTION_DOT":0.00006576,"MEAN_MOTION_DDOT":0},{"OBJECT_NAME":"TIGER-7","OBJECT_ID":"2024-043AV","EPOCH":"2026-07-20T22:00:14.700384","CLASSIFICATION_TYPE":"U","MEAN_MOTION":15.49429442,"ECCENTRICITY":0.00066052,"INCLINATION":97.5518,"RA_OF_ASC_NODE":354.4353,"ARG_OF_PERICENTER":60.8082,"MEAN_ANOMALY":299.3828,"EPHEMERIS_TYPE":0,"NORAD_CAT_ID":59141,"ELEMENT_SET_NO":999,"REV_AT_EPOCH":13319,"BSTAR":0.00015439082,"MEAN_MOTION_DOT":0.00008387,"MEAN_MOTION_DDOT":0}]}
